[{"OBJECT_NAME":"STARLINK-6331","OBJECT_ID":"2023-099Z","EPOCH":"2026-03-09T22:00:01.999584","MEAN_MOTION":15.15209129,"ECCENTRICITY":0.00019842,"INCLINATION":42.9998,"RA_OF_ASC_NODE":246.7504,"ARG_OF_PERICENTER":258.4681,"MEAN_ANOMALY":55.1017,"EPHEMERIS_TYPE":0,"CLASSIFICATION_TYPE":"U","NORAD_CAT_ID":57351,"ELEMENT_SET_NO":999,"REV_AT_EPOCH":577,"BSTAR":0.055836947,"MEAN_MOTION_DOT":0.01162393,"MEAN_MOTION_DDOT":0},{"OBJECT_NAME":"SL-8 DEB","OBJECT_ID":"1977-059D","EPOCH":"2026-03-09T17:54:55.494432","MEAN_MOTION":15.2130551,"ECCENTRICITY":0.0004146,"INCLINATION":74.0432,"RA_OF_ASC_NODE":189.1557,"ARG_OF_PERICENTER":2.1163,"MEAN_ANOMALY":118.2856,"EPHEMERIS_TYPE":0,"CLASSIFICATION_TYPE":"U","NORAD_CAT_ID":14818,"ELEMENT_SET_NO":999,"REV_AT_EPOCH":40248,"BSTAR":0.0014031002,"MEAN_MOTION_DOT":0.00031504,"MEAN_MOTION_DDOT":0}]
